{"type": "FeatureCollection", "features": [ {"type": "Feature", "properties": {"norad_id": 34529, "name": "IRIDIUM 33 DEB", "group": "iridium-33-debris", "lat": 21.409594805383172, "lon": 37.299794337181325, "alt_km": 759.4496823109112, "timestamp": "2025-12-11T15:53:39.928559+00:00", "meta": {"OBJECT_NAME": "IRIDIUM 33 DEB", "OBJECT_ID": "1997-051HW", "EPOCH": "2025-12-11T04:07:33.338496", "MEAN_MOTION": 14.40613819, "ECCENTRICITY": 0.00046099, "INCLINATION": 86.3642, "RA_OF_ASC_NODE": 36.0802, "ARG_OF_PERICENTER": 181.7782, "MEAN_ANOMALY": 178.3402, "EPHEMERIS_TYPE": 0, "CLASSIFICATION_TYPE": "U", "NORAD_CAT_ID": 34529, "ELEMENT_SET_NO": 999, "REV_AT_EPOCH": 88119, "BSTAR": 0.00016814753, "MEAN_MOTION_DOT": 5.56e-06, "MEAN_MOTION_DDOT": 0}, "tle": {"line1": "1 34529U 97051HW  25345.17191364  .00000556  00000+0  16815-3 0  9995", "line2": "2 34529  86.3642  36.0802 0004609 181.7782 178.3402 14.40613819881195"}}, "geometry": {"type": "Point", "coordinates": [37.299794337181325, 21.409594805383172]}}, {"type": "Feature", "properties": {"norad_id": 34538, "name": "IRIDIUM 33 DEB", "group": "iridium-33-debris", "lat": -30.515518624067184, "lon": -171.77280118476443, "alt_km": 768.0596140615553, "timestamp": "2025-12-11T15:53:39.928569+00:00", "meta": {"OBJECT_NAME": "IRIDIUM 33 DEB", "OBJECT_ID": "1997-051JF", "EPOCH": "2025-12-10T12:59:24.609120", "MEAN_MOTION": 14.42626981, "ECCENTRICITY": 0.0033054, "INCLINATION": 86.2772, "RA_OF_ASC_NODE": 6.5186, "ARG_OF_PERICENTER": 335.5091, "MEAN_ANOMALY": 177.0552, "EPHEMERIS_TYPE": 0, "CLASSIFICATION_TYPE": "U", "NORAD_CAT_ID": 34538, "ELEMENT_SET_NO": 999, "REV_AT_EPOCH": 87724, "BSTAR": 0.0013644, "MEAN_MOTION_DOT": 4.581e-05, "MEAN_MOTION_DDOT": 0}, "tle": {"line1": "1 34538U 97051JF  25344.54125705  .00004581  00000+0  13644-2 0  9999", "line2": "2 34538  86.2772   6.5186 0033054 335.5091 177.0552 14.42626981877242"}}, "geometry": {"type": "Point", "coordinates": [-171.77280118476443, -30.515518624067184]}}, {"type": "Feature", "properties": {"norad_id": 34540, "name": "IRIDIUM 33 DEB", "group": "iridium-33-debris", "lat": 37.473904102588754, "lon": 125.26420038981716, "alt_km": 631.050876797497, "timestamp": "2025-12-11T15:53:39.928580+00:00", "meta": {"OBJECT_NAME": "IRIDIUM 33 DEB", "OBJECT_ID": "1997-051JH", "EPOCH": "2025-12-11T03:55:52.274208", "MEAN_MOTION": 14.7526328, "ECCENTRICITY": 0.00161455, "INCLINATION": 86.3106, "RA_OF_ASC_NODE": 308.3273, "ARG_OF_PERICENTER": 164.7687, "MEAN_ANOMALY": 212.0228, "EPHEMERIS_TYPE": 0, "CLASSIFICATION_TYPE": "U", "NORAD_CAT_ID": 34540, "ELEMENT_SET_NO": 999, "REV_AT_EPOCH": 88998, "BSTAR": 0.0024696788, "MEAN_MOTION_DOT": 0.00016792, "MEAN_MOTION_DDOT": 0}, "tle": {"line1": "1 34540U 97051JH  25345.16379947  .00016792  00000+0  24697-2 0  9997", "line2": "2 34540  86.3106 308.3273 0016145 164.7687 212.0228 14.75263280889981"}}, "geometry": {"type": "Point", "coordinates": [125.26420038981716, 37.473904102588754]}}, {"type": "Feature", "properties": {"norad_id": 34648, "name": "IRIDIUM 33 DEB", "group": "iridium-33-debris", "lat": 5.119261475923023, "lon": 102.05771348590638, "alt_km": 935.773383476273, "timestamp": "2025-12-11T15:53:39.928591+00:00", "meta": {"OBJECT_NAME": "IRIDIUM 33 DEB", "OBJECT_ID": "1997-051JZ", "EPOCH": "2025-12-11T06:32:44.536416", "MEAN_MOTION": 14.11432861, "ECCENTRICITY": 0.01832227, "INCLINATION": 86.39, "RA_OF_ASC_NODE": 282.539, "ARG_OF_PERICENTER": 303.446, "MEAN_ANOMALY": 54.9318, "EPHEMERIS_TYPE": 0, "CLASSIFICATION_TYPE": "U", "NORAD_CAT_ID": 34648, "ELEMENT_SET_NO": 999, "REV_AT_EPOCH": 84940, "BSTAR": 0.01579567, "MEAN_MOTION_DOT": 0.00033631, "MEAN_MOTION_DDOT": 0}, "tle": {"line1": "1 34648U 97051JZ  25345.27273769  .00033631  00000+0  15796-1 0  9993", "line2": "2 34648  86.3900 282.5390 0183222 303.4460  54.9318 14.11432861849406"}}, "geometry": {"type": "Point", "coordinates": [102.05771348590638, 5.119261475923023]}}, {"type": "Feature", "properties": {"norad_id": 34651, "name": "IRIDIUM 33 DEB", "group": "iridium-33-debris", "lat": 2.0535261954462594, "lon": -39.09786259038938, "alt_km": 719.4438500212436, "timestamp": "2025-12-11T15:53:39.928601+00:00", "meta": {"OBJECT_NAME": "IRIDIUM 33 DEB", "OBJECT_ID": "1997-051KC", "EPOCH": "2025-12-10T20:31:39.361152", "MEAN_MOTION": 14.25764503, "ECCENTRICITY": 0.0142095, "INCLINATION": 86.2836, "RA_OF_ASC_NODE": 141.3789, "ARG_OF_PERICENTER": 209.9439, "MEAN_ANOMALY": 149.3571, "EPHEMERIS_TYPE": 0, "CLASSIFICATION_TYPE": "U", "NORAD_CAT_ID": 34651, "ELEMENT_SET_NO": 999, "REV_AT_EPOCH": 85869, "BSTAR": 0.0051973, "MEAN_MOTION_DOT": 0.00013755, "MEAN_MOTION_DDOT": 0}, "tle": {"line1": "1 34651U 97051KC  25344.85531668  .00013755  00000+0  51973-2 0  9998", "line2": "2 34651  86.2836 141.3789 0142095 209.9439 149.3571 14.25764503858697"}}, "geometry": {"type": "Point", "coordinates": [-39.09786259038938, 2.0535261954462594]}}, {"type": "Feature", "properties": {"norad_id": 34652, "name": "IRIDIUM 33 DEB", "group": "iridium-33-debris", "lat": 86.29652706638319, "lon": 62.84550237355543, "alt_km": 694.5425693926009, "timestamp": "2025-12-11T15:53:39.928611+00:00", "meta": {"OBJECT_NAME": "IRIDIUM 33 DEB", "OBJECT_ID": "1997-051KD", "EPOCH": "2025-12-11T07:34:05.057184", "MEAN_MOTION": 14.62038303, "ECCENTRICITY": 0.00260123, "INCLINATION": 86.3317, "RA_OF_ASC_NODE": 340.6357, "ARG_OF_PERICENTER": 303.4759, "MEAN_ANOMALY": 121.0337, "EPHEMERIS_TYPE": 0, "CLASSIFICATION_TYPE": "U", "NORAD_CAT_ID": 34652, "ELEMENT_SET_NO": 999, "REV_AT_EPOCH": 88463, "BSTAR": 0.0018117648, "MEAN_MOTION_DOT": 9.158e-05, "MEAN_MOTION_DDOT": 0}, "tle": {"line1": "1 34652U 97051KD  25345.31533631  .00009158  00000+0  18118-2 0  9999", "line2": "2 34652  86.3317 340.6357 0026012 303.4759 121.0337 14.62038303884636"}}, "geometry": {"type": "Point", "coordinates": [62.84550237355543, 86.29652706638319]}}, {"type": "Feature", "properties": {"norad_id": 34690, "name": "IRIDIUM 33 DEB", "group": "iridium-33-debris", "lat": -21.018585053618335, "lon": 36.06494839710316, "alt_km": 709.7884484539363, "timestamp": "2025-12-11T15:53:39.928622+00:00", "meta": {"OBJECT_NAME": "IRIDIUM 33 DEB", "OBJECT_ID": "1997-051KM", "EPOCH": "2025-12-11T02:55:05.414016", "MEAN_MOTION": 14.5508579, "ECCENTRICITY": 0.00110418, "INCLINATION": 86.378, "RA_OF_ASC_NODE": 37.6945, "ARG_OF_PERICENTER": 34.4543, "MEAN_ANOMALY": 354.2887, "EPHEMERIS_TYPE": 0, "CLASSIFICATION_TYPE": "U", "NORAD_CAT_ID": 34690, "ELEMENT_SET_NO": 999, "REV_AT_EPOCH": 88071, "BSTAR": 0.00065168739, "MEAN_MOTION_DOT": 2.833e-05, "MEAN_MOTION_DDOT": 0}, "tle": {"line1": "1 34690U 97051KM  25345.12159044  .00002833  00000+0  65169-3 0  9994", "line2": "2 34690  86.3780  37.6945 0011041  34.4543 354.2887 14.55085790880715"}}, "geometry": {"type": "Point", "coordinates": [36.06494839710316, -21.018585053618335]}}, {"type": "Feature", "properties": {"norad_id": 34693, "name": "IRIDIUM 33 DEB", "group": "iridium-33-debris", "lat": 73.55433367511579, "lon": 111.71569720755605, "alt_km": 470.58909701438824, "timestamp": "2025-12-11T15:53:39.928632+00:00", "meta": {"OBJECT_NAME": "IRIDIUM 33 DEB", "OBJECT_ID": "1997-051KQ", "EPOCH": "2025-12-10T08:38:30.910272", "MEAN_MOTION": 15.27015384, "ECCENTRICITY": 0.00144202, "INCLINATION": 86.3054, "RA_OF_ASC_NODE": 305.0067, "ARG_OF_PERICENTER": 56.9182, "MEAN_ANOMALY": 94.3145, "EPHEMERIS_TYPE": 0, "CLASSIFICATION_TYPE": "U", "NORAD_CAT_ID": 34693, "ELEMENT_SET_NO": 999, "REV_AT_EPOCH": 88878, "BSTAR": 0.0067186448, "MEAN_MOTION_DOT": 0.00182624, "MEAN_MOTION_DDOT": 0}, "tle": {"line1": "1 34693U 97051KQ  25344.36007998  .00182624  00000+0  67186-2 0  9999", "line2": "2 34693  86.3054 305.0067 0014420  56.9182  94.3145 15.27015384888787"}}, "geometry": {"type": "Point", "coordinates": [111.71569720755605, 73.55433367511579]}}, {"type": "Feature", "properties": {"norad_id": 34696, "name": "IRIDIUM 33 DEB", "group": "iridium-33-debris", "lat": 77.48531630558064, "lon": 45.518389498575814, "alt_km": 672.2749149115907, "timestamp": "2025-12-11T15:53:39.928642+00:00", "meta": {"OBJECT_NAME": "IRIDIUM 33 DEB", "OBJECT_ID": "1997-051KT", "EPOCH": "2025-12-11T02:33:26.982720", "MEAN_MOTION": 14.64953116, "ECCENTRICITY": 0.00741481, "INCLINATION": 86.185, "RA_OF_ASC_NODE": 28.2818, "ARG_OF_PERICENTER": 173.0229, "MEAN_ANOMALY": 217.0787, "EPHEMERIS_TYPE": 0, "CLASSIFICATION_TYPE": "U", "NORAD_CAT_ID": 34696, "ELEMENT_SET_NO": 999, "REV_AT_EPOCH": 86649, "BSTAR": 0.0075396538, "MEAN_MOTION_DOT": 0.00042238, "MEAN_MOTION_DDOT": 0}, "tle": {"line1": "1 34696U 97051KT  25345.10656230  .00042238  00000+0  75397-2 0  9993", "line2": "2 34696  86.1850  28.2818 0074148 173.0229 217.0787 14.64953116866490"}}, "geometry": {"type": "Point", "coordinates": [45.518389498575814, 77.48531630558064]}}, {"type": "Feature", "properties": {"norad_id": 34765, "name": "IRIDIUM 33 DEB", "group": "iridium-33-debris", "lat": 64.15519522565545, "lon": 40.818478985944466, "alt_km": 760.31727569536, "timestamp": "2025-12-11T15:53:39.928653+00:00", "meta": {"OBJECT_NAME": "IRIDIUM 33 DEB", "OBJECT_ID": "1997-051LJ", "EPOCH": "2025-12-11T02:23:38.251392", "MEAN_MOTION": 14.40458426, "ECCENTRICITY": 0.0015267, "INCLINATION": 86.3395, "RA_OF_ASC_NODE": 33.4653, "ARG_OF_PERICENTER": 217.1303, "MEAN_ANOMALY": 172.2223, "EPHEMERIS_TYPE": 0, "CLASSIFICATION_TYPE": "U", "NORAD_CAT_ID": 34765, "ELEMENT_SET_NO": 999, "REV_AT_EPOCH": 87590, "BSTAR": 0.00060872397, "MEAN_MOTION_DOT": 1.956e-05, "MEAN_MOTION_DDOT": 0}, "tle": {"line1": "1 34765U 97051LJ  25345.09974828  .00001956  00000+0  60872-3 0  9999", "line2": "2 34765  86.3395  33.4653 0015267 217.1303 172.2223 14.40458426875909"}}, "geometry": {"type": "Point", "coordinates": [40.818478985944466, 64.15519522565545]}}]}